{
"type": "FeatureCollection",
"name": "selected_intersections",
"crs": { "type": "name", "properties": { "name": "urn:ogc:def:crs:OGC:1.3:CRS84" } },
"features": [
{ "type": "Feature", "properties": { "importance_rank": 1, "osm_node_id": "350390643", "latitude": 13.841924, "longitude": 100.7131838, "street_names": "ถนนสุเหร่าคลองหนึ่ง; ถนนเจริญพัฒนา", "highway_types": "secondary; tertiary", "in_degree": 4, "out_degree": 4, "fully_bidirectional": true, "traffic_signals": false, "junction": "", "minimum_branch_angle": 88.46, "maximum_branch_angle": 92.41, "cross_score": 0.9866, "likely_geometric_cross": true, "osm_url": "https://www.openstreetmap.org/node/350390643", "branch_1_neighbor": "8201564391", "branch_1_bearing": 5.31, "branch_1_street": "ถนนเจริญพัฒนา", "branch_1_highway": "tertiary", "branch_2_neighbor": "8201071378", "branch_2_bearing": 94.87, "branch_2_street": "ถนนสุเหร่าคลองหนึ่ง", "branch_2_highway": "secondary", "branch_3_neighbor": "6124096991", "branch_3_bearing": 187.28, "branch_3_street": "ถนนเจริญพัฒนา", "branch_3_highway": "tertiary", "branch_4_neighbor": "6124096990", "branch_4_bearing": 276.85, "branch_4_street": "ถนนสุเหร่าคลองหนึ่ง", "branch_4_highway": "secondary", "betweenness_centrality": 0.1701371889024888, "baseline_control": "assumed fixed-time signal" }, "geometry": { "type": "Point", "coordinates": [ 100.7131838, 13.841924 ] } },
{ "type": "Feature", "properties": { "importance_rank": 2, "osm_node_id": "2722951931", "latitude": 13.8941035, "longitude": 100.7034483, "street_names": "ซอยหนองระแหง 5; ถนนไทยรามัญ", "highway_types": "residential; tertiary", "in_degree": 4, "out_degree": 4, "fully_bidirectional": true, "traffic_signals": false, "junction": "", "minimum_branch_angle": 80.55, "maximum_branch_angle": 98.81, "cross_score": 0.9165, "likely_geometric_cross": true, "osm_url": "https://www.openstreetmap.org/node/2722951931", "branch_1_neighbor": "5941670492", "branch_1_bearing": 77.33, "branch_1_street": "ถนนไทยรามัญ", "branch_1_highway": "tertiary", "branch_2_neighbor": "6131175743", "branch_2_bearing": 176.14, "branch_2_street": "ซอยหนองระแหง 5", "branch_2_highway": "residential", "branch_3_neighbor": "5941752933", "branch_3_bearing": 260.56, "branch_3_street": "ถนนไทยรามัญ", "branch_3_highway": "tertiary", "branch_4_neighbor": "8323516709", "branch_4_bearing": 356.78, "branch_4_street": "ซอยหนองระแหง 5", "branch_4_highway": "residential", "betweenness_centrality": 0.1164121787025704, "baseline_control": "assumed fixed-time signal" }, "geometry": { "type": "Point", "coordinates": [ 100.7034483, 13.8941035 ] } },
{ "type": "Feature", "properties": { "importance_rank": 3, "osm_node_id": "3053324433", "latitude": 13.8860863, "longitude": 100.7221994, "street_names": "ถนนหทัยราษฎร์", "highway_types": "residential; secondary", "in_degree": 4, "out_degree": 4, "fully_bidirectional": true, "traffic_signals": false, "junction": "", "minimum_branch_angle": 88.26, "maximum_branch_angle": 91.45, "cross_score": 0.989, "likely_geometric_cross": true, "osm_url": "https://www.openstreetmap.org/node/3053324433", "branch_1_neighbor": "3053324448", "branch_1_bearing": 87.82, "branch_1_street": "", "branch_1_highway": "residential", "branch_2_neighbor": "6124182917", "branch_2_bearing": 178.36, "branch_2_street": "ถนนหทัยราษฎร์", "branch_2_highway": "secondary", "branch_3_neighbor": "8073679424", "branch_3_bearing": 268.11, "branch_3_street": "", "branch_3_highway": "residential", "branch_4_neighbor": "5941639349", "branch_4_bearing": 359.56, "branch_4_street": "ถนนหทัยราษฎร์", "branch_4_highway": "secondary", "betweenness_centrality": 0.10910546715626276, "baseline_control": "assumed fixed-time signal" }, "geometry": { "type": "Point", "coordinates": [ 100.7221994, 13.8860863 ] } },
{ "type": "Feature", "properties": { "importance_rank": 4, "osm_node_id": "3834754707", "latitude": 13.8597869, "longitude": 100.7350807, "street_names": "ซอย วัดสุขใจ; ซอยวัดสุขใจ; วัดสุขใจ 1; วัดสุขใจ 4", "highway_types": "residential; tertiary", "in_degree": 4, "out_degree": 4, "fully_bidirectional": true, "traffic_signals": false, "junction": "", "minimum_branch_angle": 84.3, "maximum_branch_angle": 96.5, "cross_score": 0.9381, "likely_geometric_cross": true, "osm_url": "https://www.openstreetmap.org/node/3834754707", "branch_1_neighbor": "3834754699", "branch_1_bearing": 83.68, "branch_1_street": "ซอยวัดสุขใจ", "branch_1_highway": "tertiary", "branch_2_neighbor": "3839892569", "branch_2_bearing": 168.24, "branch_2_street": "วัดสุขใจ 4", "branch_2_highway": "residential", "branch_3_neighbor": "3839892586", "branch_3_bearing": 262.88, "branch_3_street": "ซอย วัดสุขใจ; ซอยวัดสุขใจ", "branch_3_highway": "tertiary", "branch_4_neighbor": "3834754752", "branch_4_bearing": 347.18, "branch_4_street": "วัดสุขใจ 1", "branch_4_highway": "residential", "betweenness_centrality": 0.10360159118727051, "baseline_control": "assumed fixed-time signal" }, "geometry": { "type": "Point", "coordinates": [ 100.7350807, 13.8597869 ] } },
{ "type": "Feature", "properties": { "importance_rank": 5, "osm_node_id": "5877834594", "latitude": 13.8601908, "longitude": 100.7403845, "street_names": "ซอยวัดสุขใจ", "highway_types": "residential; tertiary", "in_degree": 4, "out_degree": 4, "fully_bidirectional": true, "traffic_signals": false, "junction": "", "minimum_branch_angle": 63.89, "maximum_branch_angle": 116.16, "cross_score": 0.7728, "likely_geometric_cross": true, "osm_url": "https://www.openstreetmap.org/node/5877834594", "branch_1_neighbor": "5877834596", "branch_1_bearing": 62.88, "branch_1_street": "ซอยวัดสุขใจ", "branch_1_highway": "tertiary", "branch_2_neighbor": "8447601555", "branch_2_bearing": 167.61, "branch_2_street": "", "branch_2_highway": "residential", "branch_3_neighbor": "3834754712", "branch_3_bearing": 242.83, "branch_3_street": "ซอยวัดสุขใจ", "branch_3_highway": "tertiary", "branch_4_neighbor": "5877834589", "branch_4_bearing": 359.0, "branch_4_street": "", "branch_4_highway": "residential", "betweenness_centrality": 0.10206956344349247, "baseline_control": "assumed fixed-time signal" }, "geometry": { "type": "Point", "coordinates": [ 100.7403845, 13.8601908 ] } },
{ "type": "Feature", "properties": { "importance_rank": 6, "osm_node_id": "2739129171", "latitude": 13.8694104, "longitude": 100.7749543, "street_names": "วัดสุขใจ 36", "highway_types": "residential; tertiary", "in_degree": 4, "out_degree": 4, "fully_bidirectional": true, "traffic_signals": false, "junction": "", "minimum_branch_angle": 64.27, "maximum_branch_angle": 116.6, "cross_score": 0.7214, "likely_geometric_cross": true, "osm_url": "https://www.openstreetmap.org/node/2739129171", "branch_1_neighbor": "2739129170", "branch_1_bearing": 100.17, "branch_1_street": "วัดสุขใจ 36", "branch_1_highway": "tertiary", "branch_2_neighbor": "8608023568", "branch_2_bearing": 164.45, "branch_2_street": "", "branch_2_highway": "residential", "branch_3_neighbor": "2739129173", "branch_3_bearing": 281.05, "branch_3_street": "วัดสุขใจ 36", "branch_3_highway": "tertiary", "branch_4_neighbor": "8186441949", "branch_4_bearing": 346.62, "branch_4_street": "", "branch_4_highway": "residential", "betweenness_centrality": 0.092509689922480626, "baseline_control": "assumed fixed-time signal" }, "geometry": { "type": "Point", "coordinates": [ 100.7749543, 13.8694104 ] } },
{ "type": "Feature", "properties": { "importance_rank": 7, "osm_node_id": "3017429961", "latitude": 13.8311443, "longitude": 100.7610659, "street_names": "ถนนประชาร่วมใจ", "highway_types": "residential; secondary", "in_degree": 4, "out_degree": 4, "fully_bidirectional": true, "traffic_signals": false, "junction": "", "minimum_branch_angle": 85.41, "maximum_branch_angle": 96.31, "cross_score": 0.9528, "likely_geometric_cross": true, "osm_url": "https://www.openstreetmap.org/node/3017429961", "branch_1_neighbor": "1669530692", "branch_1_bearing": 57.41, "branch_1_street": "ถนนประชาร่วมใจ", "branch_1_highway": "secondary", "branch_2_neighbor": "5883318906", "branch_2_bearing": 149.6, "branch_2_street": "", "branch_2_highway": "residential", "branch_3_neighbor": "5883318905", "branch_3_bearing": 235.02, "branch_3_street": "ถนนประชาร่วมใจ", "branch_3_highway": "secondary", "branch_4_neighbor": "3017429976", "branch_4_bearing": 331.33, "branch_4_street": "", "branch_4_highway": "residential", "betweenness_centrality": 0.086984904120767037, "baseline_control": "assumed fixed-time signal" }, "geometry": { "type": "Point", "coordinates": [ 100.7610659, 13.8311443 ] } },
{ "type": "Feature", "properties": { "importance_rank": 8, "osm_node_id": "6128822544", "latitude": 13.8408751, "longitude": 100.698682, "street_names": "ถนนสุเหร่าคลองหนึ่ง; สุเหร่าคลองหนึ่ง 2", "highway_types": "residential; secondary", "in_degree": 4, "out_degree": 4, "fully_bidirectional": true, "traffic_signals": false, "junction": "", "minimum_branch_angle": 81.6, "maximum_branch_angle": 98.39, "cross_score": 0.9103, "likely_geometric_cross": true, "osm_url": "https://www.openstreetmap.org/node/6128822544", "branch_1_neighbor": "9343429231", "branch_1_bearing": 0.31, "branch_1_street": "", "branch_1_highway": "residential", "branch_2_neighbor": "8295400021", "branch_2_bearing": 81.91, "branch_2_street": "ถนนสุเหร่าคลองหนึ่ง", "branch_2_highway": "secondary", "branch_3_neighbor": "6128822543", "branch_3_bearing": 179.66, "branch_3_street": "สุเหร่าคลองหนึ่ง 2", "branch_3_highway": "residential", "branch_4_neighbor": "8295400019", "branch_4_bearing": 261.91, "branch_4_street": "ถนนสุเหร่าคลองหนึ่ง", "branch_4_highway": "secondary", "betweenness_centrality": 0.070014789881680958, "baseline_control": "assumed fixed-time signal" }, "geometry": { "type": "Point", "coordinates": [ 100.698682, 13.8408751 ] } },
{ "type": "Feature", "properties": { "importance_rank": 9, "osm_node_id": "2722951940", "latitude": 13.9061458, "longitude": 100.6996359, "street_names": "ซอยหนองระแหง 5; ถนนหนองระแหง", "highway_types": "residential; tertiary", "in_degree": 4, "out_degree": 4, "fully_bidirectional": true, "traffic_signals": false, "junction": "", "minimum_branch_angle": 73.85, "maximum_branch_angle": 101.62, "cross_score": 0.9103, "likely_geometric_cross": true, "osm_url": "https://www.openstreetmap.org/node/2722951940", "branch_1_neighbor": "5936033922", "branch_1_bearing": 50.72, "branch_1_street": "ถนนหนองระแหง", "branch_1_highway": "tertiary", "branch_2_neighbor": "8323516709", "branch_2_bearing": 142.67, "branch_2_street": "ซอยหนองระแหง 5", "branch_2_highway": "residential", "branch_3_neighbor": "8323516714", "branch_3_bearing": 235.25, "branch_3_street": "ถนนหนองระแหง", "branch_3_highway": "tertiary", "branch_4_neighbor": "8323516703", "branch_4_bearing": 309.1, "branch_4_street": "", "branch_4_highway": "residential", "betweenness_centrality": 0.065662994696042434, "baseline_control": "assumed fixed-time signal" }, "geometry": { "type": "Point", "coordinates": [ 100.6996359, 13.9061458 ] } },
{ "type": "Feature", "properties": { "importance_rank": 10, "osm_node_id": "3010327836", "latitude": 13.8353969, "longitude": 100.7675243, "street_names": "ซอยประชาร่วมใจ 33; ซอยประชาร่วมใจ 44; ถนนประชาร่วมใจ", "highway_types": "residential; secondary", "in_degree": 4, "out_degree": 4, "fully_bidirectional": true, "traffic_signals": false, "junction": "", "minimum_branch_angle": 85.64, "maximum_branch_angle": 94.39, "cross_score": 0.9519, "likely_geometric_cross": true, "osm_url": "https://www.openstreetmap.org/node/3010327836", "branch_1_neighbor": "5819567003", "branch_1_bearing": 55.26, "branch_1_street": "ถนนประชาร่วมใจ", "branch_1_highway": "secondary", "branch_2_neighbor": "3010327299", "branch_2_bearing": 149.52, "branch_2_street": "ซอยประชาร่วมใจ 44", "branch_2_highway": "residential", "branch_3_neighbor": "3010327329", "branch_3_bearing": 235.16, "branch_3_street": "ถนนประชาร่วมใจ", "branch_3_highway": "secondary", "branch_4_neighbor": "8182260087", "branch_4_bearing": 329.55, "branch_4_street": "ซอยประชาร่วมใจ 33", "branch_4_highway": "residential", "betweenness_centrality": 0.053101795185638519, "baseline_control": "assumed fixed-time signal" }, "geometry": { "type": "Point", "coordinates": [ 100.7675243, 13.8353969 ] } }
]
}
